{
    "links": {
        "self": "http://www.neowsapp.com/rest/v1/neo/3553281?api_key=iIulBulltgU6a56xZRHN4H3l9WmuAYTsLGpBGhQ2"
    },
    "id": "3553281",
    "neo_reference_id": "3553281",
    "name": "(2010 XA25)",
    "designation": "2010 XA25",
    "nasa_jpl_url": "http://ssd.jpl.nasa.gov/sbdb.cgi?sstr=3553281",
    "absolute_magnitude_h": 26.8,
    "estimated_diameter": {
        "kilometers": {
            "estimated_diameter_min": 0.0116025908,
            "estimated_diameter_max": 0.0259441818
        },
        "meters": {
            "estimated_diameter_min": 11.6025908209,
            "estimated_diameter_max": 25.9441817907
        },
        "miles": {
            "estimated_diameter_min": 0.0072095135,
            "estimated_diameter_max": 0.0161209622
        },
        "feet": {
            "estimated_diameter_min": 38.066244069,
            "estimated_diameter_max": 85.1187093863
        }
    },
    "is_potentially_hazardous_asteroid": false,
    "close_approach_data": [
        {
            "close_approach_date": "2006-01-04",
            "close_approach_date_full": "2006-Jan-04 07:48",
            "epoch_date_close_approach": 1136360880000,
            "relative_velocity": {
                "kilometers_per_second": "15.8540804425",
                "kilometers_per_hour": "57074.6895931678",
                "miles_per_hour": "35463.9925419325"
            },
            "miss_distance": {
                "astronomical": "0.2708554524",
                "lunar": "105.3627709836",
                "kilometers": "40519398.756926388",
                "miles": "25177586.8873366344"
            },
            "orbiting_body": "Earth"
        },
        {
            "close_approach_date": "2010-12-06",
            "close_approach_date_full": "2010-Dec-06 22:31",
            "epoch_date_close_approach": 1291674660000,
            "relative_velocity": {
                "kilometers_per_second": "7.6093249693",
                "kilometers_per_hour": "27393.5698896333",
                "miles_per_hour": "17021.2990239224"
            },
            "miss_distance": {
                "astronomical": "0.0115695717",
                "lunar": "4.5005633913",
                "kilometers": "1730783.283132279",
                "miles": "1075458.8624482902"
            },
            "orbiting_body": "Earth"
        }
    ],
    "orbital_data": {
        "orbit_id": "8",
        "orbit_determination_date": "2017-04-06 08:55:17",
        "first_observation_date": "2010-12-08",
        "last_observation_date": "2010-12-14",
        "data_arc_in_days": 6,
        "observations_used": 44,
        "orbit_uncertainty": "7",
        "minimum_orbit_intersection": ".00706121",
        "jupiter_tisserand_invariant": "3.881",
        "epoch_osculation": "2459000.5",
        "eccentricity": ".4704293132670343",
        "semi_major_axis": "1.835578266393546",
        "inclination": "3.045607831004611",
        "ascending_node_longitude": "257.5547236665803",
        "orbital_period": "908.359551600103",
        "perihelion_distance": ".972068443086137",
        "perihelion_argument": "154.54906591",
        "aphelion_distance": "2.699088089700956",
        "perihelion_time": "2459160.331184181104",
        "mean_anomaly": "296.6558911569318",
        "mean_motion": ".3963188358242604",
        "equinox": "J2000",
        "orbit_class": {
            "orbit_class_type": "APO",
            "orbit_class_description": "Near-Earth asteroid orbits which cross the Earth’s orbit similar to that of 1862 Apollo",
            "orbit_class_range": "a (semi-major axis) > 1.0 AU; q (perihelion) < 1.017 AU"
        }
    },
    "is_sentry_object": false
}